0 DELTA 4 R/B
1 37754U 11036B   13281.46845182  .00000035  00000-0  00000+0 0  3485
2 37754 054.7738 157.6598 0276688 049.9362 048.7184 01.90193144 15508
0 DELTA 4 R/B
1 37754U 11036B   13286.18326368  .00000014  00000-0  00000+0 0  3497
2 37754 054.7744 157.4923 0276962 050.0403 036.9252 01.90193304 15591
0 DELTA 4 R/B
1 37754U 11036B   13293.69520059  .00000032  00000-0  00000+0 0  3506
2 37754 054.7750 157.2257 0277345 050.1905 140.3331 01.90193431 15735
